NORAD_CAT_ID,OBJECT_NAME,OBJECT_TYPE,EPOCH,MEAN_MOTION,ECCENTRICITY,INCLINATION,RA_OF_ASC_NODE,ARG_OF_PERICENTER,MEAN_ANOMALY,BSTAR,MEAN_MOTION_DOT,MEAN_MOTION_DDOT,TLE_LINE0,TLE_LINE1,TLE_LINE2,SEMIMAJOR_AXIS,PERIOD,APOGEE,PERIGEE,DECAYED
55295.0,STARLINK-5293,PAYLOAD,2023-10-15 12:55:36,14.98340425,0.0003021,70.0003,93.6795,273.008,87.0733,-5.639e-06,-1.6e-06,0.0,0 STARLINK-5293,1 55295U 23010AC  23288.53861832 -.00000160  00000-0 -56390-5 0  9998,2 55295  70.0003  93.6795 0003021 273.0080  87.0733 14.98340425 41231,6950.161,96.106,574.125,569.926,0.0
55295.0,STARLINK-5293,PAYLOAD,2023-10-15 14:31:44,14.98339571,0.0003031,70.0003,93.5112,273.0831,86.9981,-2.6379e-05,-4.08e-06,0.0,0 STARLINK-5293,1 55295U 23010AC  23288.60537813 -.00000408  00000-0 -26379-4 0  9993,2 55295  70.0003  93.5112 0003031 273.0831  86.9981 14.98339571 41556,6950.163,96.106,574.135,569.922,0.0
55295.0,STARLINK-5293,PAYLOAD,2023-10-15 20:56:17,14.9833964,0.0003003,69.9994,92.8377,271.4724,88.6091,2.3716e-05,1.9e-06,0.0,0 STARLINK-5293,1 55295U 23010AC  23288.87241902  .00000190  00000-0  23716-4 0  9991,2 55295  69.9994  92.8377 0003003 271.4724  88.6091 14.98339640 41591,6950.163,96.106,574.115,569.941,0.0
55295.0,STARLINK-5293,PAYLOAD,2023-10-16 12:57:37,14.98338007,0.0002982,69.9995,91.1544,271.5972,88.4845,-6.1821e-05,-8.31e-06,0.0,0 STARLINK-5293,1 55295U 23010AC  23289.54001721 -.00000831  00000-0 -61821-4 0  9992,2 55295  69.9995  91.1544 0002982 271.5972  88.4845 14.98338007 41389,6950.168,96.106,574.106,569.961,0.0
55295.0,STARLINK-5293,PAYLOAD,2023-10-16 14:33:45,14.98337434,0.0002989,69.9995,90.9861,271.6407,88.441,-6.9525e-05,-9.23e-06,0.0,0 STARLINK-5293,1 55295U 23010AC  23289.60677727 -.00000923  00000-0 -69525-4 0  9995,2 55295  69.9995  90.9861 0002989 271.6407  88.4410 14.98337434 41706,6950.17,96.107,574.112,569.957,0.0
55295.0,STARLINK-5293,PAYLOAD,2023-10-16 16:09:53,14.98337506,0.0002989,69.9995,90.8178,271.7002,88.3815,-6.9685e-05,-9.25e-06,0.0,0 STARLINK-5293,1 55295U 23010AC  23289.67353680 -.00000925  00000-0 -69685-4 0  9990,2 55295  69.9995  90.8178 0002989 271.7002  88.3815 14.98337506 41717,6950.17,96.107,574.112,569.957,0.0
55295.0,STARLINK-5293,PAYLOAD,2023-10-17 11:23:30,14.9833379,0.0003025,69.9995,88.798,271.75,88.3313,6.8365e-05,7.23e-06,0.0,0 STARLINK-5293,1 55295U 23010AC  23290.47465331  .00000723  00000-0  68365-4 0  9995,2 55295  69.9995  88.7980 0003025 271.7500  88.3313 14.98333790 41836,6950.181,96.107,574.149,569.944,0.0
55295.0,STARLINK-5293,PAYLOAD,2023-10-17 17:48:02,14.98335567,0.0003048,69.9995,88.1249,271.6413,88.4396,7.7754e-05,8.35e-06,0.0,0 STARLINK-5293,1 55295U 23010AC  23290.74169139  .00000835  00000-0  77754-4 0  9998,2 55295  69.9995  88.1249 0003048 271.6413  88.4396 14.98335567 41875,6950.176,96.107,574.159,569.922,0.0
55295.0,STARLINK-5293,PAYLOAD,2023-10-18 11:25:31,14.98328404,0.0003054,70.001,86.2746,271.01,89.0709,5.6879e-05,5.86e-06,0.0,0 STARLINK-5293,1 55295U 23010AC  23291.47605594  .00000586  00000-0  56879-4 0  9997,2 55295  70.0010  86.2746 0003054 271.0100  89.0709 14.98328404 41676,6950.198,96.107,574.185,569.94,0.0
55295.0,STARLINK-5293,PAYLOAD,2023-10-19 11:27:31,14.98332069,0.0003228,69.9984,83.7469,269.6332,90.4457,-5.2115e-06,-1.55e-06,0.0,0 STARLINK-5293,1 55295U 23010AC  23292.47745329 -.00000155  00000-0 -52115-5 0  9993,2 55295  69.9984  83.7469 0003228 269.6332  90.4457 14.98332069 41825,6950.186,96.107,574.295,569.808,0.0
55295.0,STARLINK-5293,PAYLOAD,2023-10-19 16:15:56,14.98333867,0.0002951,69.9999,83.242,266.9406,93.1415,-2.835e-05,-4.31e-06,0.0,0 STARLINK-5293,1 55295U 23010AC  23292.67773283 -.00000431  00000-0 -28350-4 0  9995,2 55295  69.9999  83.2420 0002951 266.9406  93.1415 14.98333867 42166,6950.181,96.107,574.097,569.995,0.0
55295.0,STARLINK-5293,PAYLOAD,2023-10-20 11:29:33,14.98326383,0.0003108,70.0008,81.2244,270.0487,90.0316,5.6244e-05,5.78e-06,0.0,0 STARLINK-5293,1 55295U 23010AC  23293.47885659  .00000578  00000-0  56244-4 0  9998,2 55295  70.0008  81.2244 0003108 270.0487  90.0316 14.98326383 41971,6950.204,96.107,574.229,569.909,0.0
55295.0,STARLINK-5293,PAYLOAD,2023-10-20 14:41:49,14.98324603,0.0003169,69.9984,80.8863,269.3413,90.7383,5.936e-05,6.15e-06,0.0,0 STARLINK-5293,1 55295U 23010AC  23293.61237779  .00000615  00000-0  59360-4 0  9992,2 55295  69.9984  80.8863 0003169 269.3413  90.7383 14.98324603 42302,6950.21,96.107,574.277,569.872,0.0
55295.0,STARLINK-5293,PAYLOAD,2023-10-21 11:31:34,14.98326861,0.0003231,69.9985,78.698,269.2299,90.849,3.8562e-05,3.67e-06,0.0,0 STARLINK-5293,1 55295U 23010AC  23294.48025672  .00000367  00000-0  38562-4 0  9990,2 55295  69.9985  78.6980 0003231 269.2299  90.8490 14.98326861 42127,6950.203,96.107,574.313,569.822,0.0
55295.0,STARLINK-5293,PAYLOAD,2023-10-21 19:32:14,14.98332502,0.0003209,69.9985,77.8566,269.7927,90.2865,9.891e-05,1.087e-05,0.0,0 STARLINK-5293,1 55295U 23010AC  23294.81405198  .00001087  00000-0  98910-4 0  9995,2 55295  69.9985  77.8566 0003209 269.7927  90.2865 14.98332502 42484,6950.185,96.107,574.28,569.82,0.0
55295.0,STARLINK-5293,PAYLOAD,2023-10-22 03:32:54,14.98368836,0.0003168,69.9992,77.014,275.3225,84.7572,-0.00060719,-7.338e-05,0.0,0 STARLINK-5293,1 55295U 23010AC  23295.14785232 -.00007338  00000-0 -60719-3 0  9994,2 55295  69.9992  77.0140 0003168 275.3225  84.7572 14.98368836 42224,6950.073,96.105,574.14,569.736,0.0
55295.0,STARLINK-5293,PAYLOAD,2023-10-22 11:33:35,14.9832562,0.0003162,69.9988,76.1727,270.1809,89.8988,3.1337e-05,2.81e-06,0.0,0 STARLINK-5293,1 55295U 23010AC  23295.48165927  .00000281  00000-0  31337-4 0  9997,2 55295  69.9988  76.1727 0003162 270.1809  89.8988 14.98325620 42271,6950.206,96.107,574.269,569.874,0.0
55295.0,STARLINK-5293,PAYLOAD,2023-10-22 13:09:43,14.98325604,0.0003163,69.9989,76.0044,270.1971,89.8825,2.8849e-05,2.51e-06,0.0,0 STARLINK-5293,1 55295U 23010AC  23295.54841924  .00000251  00000-0  28849-4 0  9993,2 55295  69.9989  76.0044 0003163 270.1971  89.8825 14.98325604 42591,6950.206,96.107,574.27,569.873,0.0
55295.0,STARLINK-5293,PAYLOAD,2023-10-22 19:34:15,14.98329013,0.0003287,69.9992,75.3319,273.5371,86.5412,4.2865e-05,4.18e-06,0.0,0 STARLINK-5293,1 55295U 23010AC  23295.81545767  .00000418  00000-0  42865-4 0  9998,2 55295  69.9992  75.3319 0003287 273.5371  86.5412 14.98329013 42639,6950.196,96.107,574.345,569.776,0.0
55295.0,STARLINK-5293,PAYLOAD,2023-10-23 11:35:35,14.98331376,0.0003109,69.9993,73.6486,269.1449,90.9354,9.5293e-05,1.044e-05,0.0,0 STARLINK-5293,1 55295U 23010AC  23296.48305467  .00001044  00000-0  95293-4 0  9992,2 55295  69.9993  73.6486 0003109 269.1449  90.9354 14.98331376 42422,6950.189,96.107,574.214,569.893,0.0
55295.0,STARLINK-5293,PAYLOAD,2023-10-23 19:36:15,14.98337012,0.0003169,69.9994,72.807,271.8777,88.2019,9.1727e-05,1.002e-05,0.0,0 STARLINK-5293,1 55295U 23010AC  23296.81685052  .00001002  00000-0  91727-4 0  9992,2 55295  69.9994  72.8070 0003169 271.8777  88.2019 14.98337012 42783,6950.171,96.107,574.239,569.834,0.0
55295.0,STARLINK-5293,PAYLOAD,2023-10-24 11:37:37,14.98325493,0.0003118,69.9996,71.1236,274.2188,85.8615,3.7456e-05,3.54e-06,0.0,0 STARLINK-5293,1 55295U 23010AC  23297.48445883  .00000354  00000-0  37456-4 0  9990,2 55295  69.9996  71.1236 0003118 274.2188  85.8615 14.98325493 42570,6950.207,96.107,574.239,569.905,0.0
55295.0,STARLINK-5293,PAYLOAD,2023-10-25 14:51:53,14.98335736,0.0002969,70.0001,68.2625,270.9,89.1818,2.6775e-05,2.27e-06,0.0,0 STARLINK-5293,1 55295U 23010AC  23298.61937167  .00000227  00000-0  26775-4 0  9998,2 55295  70.0001  68.2625 0002969 270.9000  89.1818 14.98335736 42740,6950.175,96.107,574.104,569.977,0.0
55295.0,STARLINK-5293,PAYLOAD,2023-10-26 13:17:46,14.9833143,0.0003022,70.0004,65.9066,267.6843,92.397,6.2577e-05,6.54e-06,0.0,0 STARLINK-5293,1 55295U 23010AC  23299.55401130  .00000654  00000-0  62577-4 0  9992,2 55295  70.0004  65.9066 0003022 267.6843  92.3970 14.98331430 43197,6950.188,96.107,574.154,569.953,0.0
55295.0,STARLINK-5293,PAYLOAD,2023-10-26 18:06:10,14.98335901,0.0003003,70.0003,65.4015,267.455,92.6265,9.6035e-05,1.053e-05,0.0,0 STARLINK-5293,1 55295U 23010AC  23299.75428713  .00001053  00000-0  96035-4 0  9990,2 55295  70.0003  65.4015 0003003 267.4550  92.6265 14.98335901 43228,6950.175,96.107,574.127,569.953,0.0
55295.0,STARLINK-5293,PAYLOAD,2023-10-27 02:06:50,14.98335925,0.0002978,70.0002,64.5577,270.7212,89.3606,6.0639e-05,6.31e-06,0.0,0 STARLINK-5293,1 55295U 23010AC  23300.08808718  .00000631  00000-0  60639-4 0  9998,2 55295  70.0002  64.5577 0002978 270.7212  89.3606 14.98335925 42960,6950.175,96.107,574.109,569.97,0.0
55295.0,STARLINK-5293,PAYLOAD,2023-10-27 14:55:54,14.98343526,0.0002631,70.0009,63.2116,261.9859,98.1001,0.00013671,1.539e-05,0.0,0 STARLINK-5293,1 55295U 23010AC  23300.62215801  .00001539  00000-0  13671-3 0  9994,2 55295  70.0009  63.2116 0002631 261.9859  98.1001 14.98343526 43354,6950.151,96.106,573.845,570.187,0.0
55295.0,STARLINK-5293,PAYLOAD,2023-10-28 13:21:49,14.98321862,0.0003052,70.0,60.8549,264.0673,96.0139,-0.00014462,-1.818e-05,0.0,0 STARLINK-5293,1 55295U 23010AC  23301.55681743 -.00001818  00000-0 -14462-3 0  9990,2 55295  70.0000  60.8549 0003052 264.0673  96.0139 14.98321862 43183,6950.218,96.108,574.204,569.962,0.0
55295.0,STARLINK-5293,PAYLOAD,2023-10-28 14:57:57,14.98322593,0.0002968,70.0003,60.6877,264.654,95.4281,-0.0001023,-1.313e-05,0.0,0 STARLINK-5293,1 55295U 23010AC  23301.62357647 -.00001313  00000-0 -10230-3 0  9990,2 55295  70.0003  60.6877 0002968 264.6540  95.4281 14.98322593 43501,6950.216,96.107,574.144,570.018,0.0
55295.0,STARLINK-5293,PAYLOAD,2023-10-28 18:10:13,14.98324188,0.000297,70.0005,60.351,265.2404,94.8416,-9.559e-05,-1.233e-05,0.0,0 STARLINK-5293,1 55295U 23010AC  23301.75709597 -.00001233  00000-0 -95590-4 0  9993,2 55295  70.0005  60.3510 0002970 265.2404  94.8416 14.98324188 43520,6950.211,96.107,574.14,570.012,0.0
